NORAD_CAT_ID,OBJECT_NAME,OBJECT_TYPE,EPOCH,MEAN_MOTION,ECCENTRICITY,INCLINATION,RA_OF_ASC_NODE,ARG_OF_PERICENTER,MEAN_ANOMALY,BSTAR,MEAN_MOTION_DOT,MEAN_MOTION_DDOT,TLE_LINE0,TLE_LINE1,TLE_LINE2,SEMIMAJOR_AXIS,PERIOD,APOGEE,PERIGEE,DECAYED
49131.0,STARLINK-3096,PAYLOAD,2022-02-24 14:00:01,15.69754002,0.0003533,70.0005,27.4259,279.8908,104.4118,-0.00013099,-0.00015823,0.0,0 STARLINK-3096,1 49131U 21082B   22055.58334491 -.00015823  00000-0 -13099-3 0  9998,2 49131  70.0005  27.4259 0003533 279.8908 104.4118 15.69754002  3683,6737.738,91.734,361.983,357.222,0.0
49131.0,STARLINK-3096,PAYLOAD,2022-02-24 22:00:00,15.69779387,0.0003523999999999,70.0008,26.4887,275.2403,192.1684,-0.0002657,-0.00031851,0.0,0 STARLINK-3096,1 49131U 21082B   22055.91667824 -.00031851  00000-0 -26570-3 0  9991,2 49131  70.0008  26.4887 0003524 275.2403 192.1684 15.69779387  3676,6737.665,91.733,361.905,357.156,0.0
49131.0,STARLINK-3096,PAYLOAD,2022-02-25 14:00:01,15.69748288,0.0003477,70.0005,24.6146,279.5678,354.0929,-0.0008089,-0.00095682,0.0,0 STARLINK-3096,1 49131U 21082B   22056.58334491 -.00095682  00000-0 -80890-3 0  9993,2 49131  70.0005  24.6146 0003477 279.5678 354.0929 15.69748288 25906,6737.754,91.734,361.962,357.276,0.0
49131.0,STARLINK-3096,PAYLOAD,2022-02-25 22:00:00,15.69710237,0.0003392,70.001,23.6778,274.8795,81.8642,0.00036255,0.00043221,0.0,0 STARLINK-3096,1 49131U 21082B   22056.91667824  .00043221  00000-0  36255-3 0  9995,2 49131  70.0010  23.6778 0003392 274.8795  81.8642 15.69710237 25951,6737.863,91.737,362.014,357.4430000000001,0.0
49131.0,STARLINK-3096,PAYLOAD,2022-02-26 14:00:01,15.69778014,0.0003533,70.0005,21.8037,277.3088,245.6288,-0.00052553,-0.00062559,0.0,0 STARLINK-3096,1 49131U 21082B   22057.58334491 -.00062559  00000-0 -52553-3 0  9996,2 49131  70.0005  21.8037 0003533 277.3088 245.6288 15.69778014 26069,6737.669,91.733,361.915,357.154,0.0
49131.0,STARLINK-3096,PAYLOAD,2022-02-26 22:00:00,15.69681106,0.0003354,70.0005,20.8758,275.7871,330.3099,-0.001288,-0.00150815,0.0,0 STARLINK-3096,1 49131U 21082B   22057.91667824 -.00150815  00000-0 -12880-2 0  9993,2 49131  70.0005  20.8758 0003354 275.7871 330.3099 15.69681106 26114,6737.946,91.738,362.071,357.552,0.0
49131.0,STARLINK-3096,PAYLOAD,2022-02-27 06:00:00,15.69745418,0.0003624,70.0007,19.9296,279.0769,50.1702,2.1337e-05,2.335e-05,0.0,0 STARLINK-3096,1 49131U 21082B   22058.25001157  .00002335  00000-0  21337-4 0  9992,2 49131  70.0007  19.9296 0003624 279.0769  50.1702 15.69745418 26165,6737.762,91.735,362.069,357.186,0.0
49131.0,STARLINK-3096,PAYLOAD,2022-02-27 14:00:01,15.69756252,0.0003641,70.0006,18.9925,275.8954,136.4789,2.1579e-06,4.5e-07,0.0,0 STARLINK-3096,1 49131U 21082B   22058.58334491  .00000045  00000-0  21579-5 0  9993,2 49131  70.0006  18.9925 0003641 275.8954 136.4789 15.69756252  3695,6737.731,91.734,362.05,357.14300000000014,0.0
49131.0,STARLINK-3096,PAYLOAD,2022-02-27 22:00:00,15.6980955,0.0003505,70.0013,18.0554,271.9491,223.5629,-0.00055385,-0.00065978,0.0,0 STARLINK-3096,1 49131U 21082B   22058.91667824 -.00065978  00000-0 -55385-3 0  9997,2 49131  70.0013  18.0554 0003505 271.9491 223.5629 15.69809550 26274,6737.579000000002,91.731,361.805,357.082,0.0
49131.0,STARLINK-3096,PAYLOAD,2022-02-28 14:00:01,15.69156288,0.0003485,70.0006,16.1929,274.5305,27.3583,0.0069016,0.00879918,0.0,0 STARLINK-3096,1 49131U 21082B   22059.58334491  .00879918  00000-0  69016-2 0  9992,2 49131  70.0006  16.1929 0003485 274.5305  27.3583 15.69156288 26374,6739.449000000001,91.769,363.662,358.965,0.0
49131.0,STARLINK-3096,PAYLOAD,2022-02-28 22:00:00,15.69741918,0.0003593,70.0012,15.2445,270.5088,114.4279,0.00010074,0.00011827,0.0,0 STARLINK-3096,1 49131U 21082B   22059.91667824  .00011827  00000-0  10074-3 0  9996,2 49131  70.0012  15.2445 0003593 270.5088 114.4279 15.69741918  3687,6737.772,91.735,362.0580000000001,357.217,0.0
49131.0,STARLINK-3096,PAYLOAD,2022-03-01 06:00:00,15.69747259,0.0003486,70.0012,14.3075,276.9211,191.1388,-0.00030202,-0.00036109,0.0,0 STARLINK-3096,1 49131U 21082B   22060.25001157 -.00036109  00000-0 -30202-3 0  9993,2 49131  70.0012  14.3075 0003486 276.9211 191.1388 15.69747259 26485,6737.757,91.735,361.971,357.273,0.0
49131.0,STARLINK-3096,PAYLOAD,2022-03-01 14:00:01,15.69712203,0.0003331,70.0012,13.3703,273.3695,277.8075,8.204299999999999e-05,9.578e-05,0.0,0 STARLINK-3096,1 49131U 21082B   22060.58334491  .00009578  00000-0  82043-4 0  9998,2 49131  70.0012  13.3703 0003331 273.3695 277.8075 15.69712203  3681,6737.857,91.737,361.967,357.478,0.0
49131.0,STARLINK-3096,PAYLOAD,2022-03-01 22:00:01,15.69773624,0.0003456,70.0018,12.4335,268.5917,5.7271,-0.00034377,-0.00041092,0.0,0 STARLINK-3096,1 49131U 21082B   22060.91668981 -.00041092  00000-0 -34377-3 0  9994,2 49131  70.0018  12.4335 0003456 268.5917   5.7271 15.69773624  3702,6737.682,91.733,361.875,357.218,0.0
49131.0,STARLINK-3096,PAYLOAD,2022-03-02 00:00:00,15.69796251,0.0003503,70.0019,12.1993,270.567,114.466,-0.00090846,-0.00107496,0.0,0 STARLINK-3096,1 49131U 21082B   22061.00001157 -.00107496  00000-0 -90846-3 0  9995,2 49131  70.0019  12.1993 0003503 270.5670 114.4660 15.69796251 26607,6737.6169999999975,91.732,361.842,357.122,0.0
49131.0,STARLINK-3096,PAYLOAD,2022-03-02 14:00:01,15.69719932,0.0003542,70.0017,10.5597,270.2256,170.2697,0.00021522,0.00025528,0.0,0 STARLINK-3096,1 49131U 21082B   22061.58334491  .00025528  00000-0  21522-3 0  9996,2 49131  70.0017  10.5597 0003542 270.2256 170.2697 15.69719932 26697,6737.835,91.736,362.087,357.314,0.0
49131.0,STARLINK-3096,PAYLOAD,2022-03-02 22:00:00,15.69795609,0.0003439,70.0019,9.623,267.5547,256.03,-0.00074909,-0.00088867,0.0,0 STARLINK-3096,1 49131U 21082B   22061.91667824 -.00088867  00000-0 -74909-3 0  9996,2 49131  70.0019   9.6230 0003439 267.5547 256.0300 15.69795609  3693,6737.619000000002,91.732,361.801,357.167,0.0
49131.0,STARLINK-3096,PAYLOAD,2022-03-03 14:00:01,15.69724693,0.0003263,70.0016,7.749,269.0965,60.7351,0.00029318,0.00034896,0.0,0 STARLINK-3096,1 49131U 21082B   22062.58334491  .00034896  00000-0  29318-3 0  9996,2 49131  70.0016   7.7490 0003263 269.0965  60.7351 15.69724693 26846,6737.821999999999,91.736,361.885,357.48800000000006,0.0
49131.0,STARLINK-3096,PAYLOAD,2022-03-03 22:00:00,15.69780173,0.0003376,70.002,6.8123,266.7398,146.1862,-0.00012115,-0.00014668,0.0,0 STARLINK-3096,1 49131U 21082B   22062.91667824 -.00014668  00000-0 -12115-3 0  9996,2 49131  70.0020   6.8123 0003376 266.7398 146.1862 15.69780173  3692,6737.663000000001,91.733,361.80300000000005,357.25300000000016,0.0
49131.0,STARLINK-3096,PAYLOAD,2022-03-04 14:00:01,15.69741582,0.0003495,70.0019,4.9384,267.5322,311.7786,0.00035166,0.00041965,0.0,0 STARLINK-3096,1 49131U 21082B   22063.58335648  .00041965  00000-0  35166-3 0  9995,2 49131  70.0019   4.9384 0003495 267.5322 311.7786 15.69741582 27003,6737.773,91.735,361.99300000000005,357.284,0.0
49131.0,STARLINK-3096,PAYLOAD,2022-03-04 22:00:00,15.69827293,0.0003628999999999,70.002,4.002,265.2167,37.148,-0.00054767,-0.00065299,0.0,0 STARLINK-3096,1 49131U 21082B   22063.91667824 -.00065299  00000-0 -54767-3 0  9992,2 49131  70.0020   4.0020 0003629 265.2167  37.1480 15.69827293  3697,6737.528,91.73,361.838,356.9480000000001,0.0
49131.0,STARLINK-3096,PAYLOAD,2022-03-05 06:00:00,15.697715099999998,0.0003612,70.0016,3.065,270.8848,114.689,-0.00012924,-0.00015627,0.0,0 STARLINK-3096,1 49131U 21082B   22064.25001157 -.00015627  00000-0 -12924-3 0  9990,2 49131  70.0016   3.0650 0003612 270.8848 114.6890 15.69771510  3685,6737.688,91.733,361.986,357.119,0.0
49131.0,STARLINK-3096,PAYLOAD,2022-03-05 14:00:01,15.69706266,0.0003595,70.0014,2.1279,265.4131,203.3141,0.00049303,0.00058956,0.0,0 STARLINK-3096,1 49131U 21082B   22064.58334491  .00058956  00000-0  49303-3 0  9997,2 49131  70.0014   2.1279 0003595 265.4131 203.3141 15.69706266  3664,6737.874,91.737,362.162,357.31699999999995,0.0
49131.0,STARLINK-3096,PAYLOAD,2022-03-05 16:00:00,15.69691141,0.0003602,70.0015,1.8935,264.032,315.4746,0.00095472,0.00115062,0.0,0 STARLINK-3096,1 49131U 21082B   22064.66667824  .00115062  00000-0  95472-3 0  9995,2 49131  70.0015   1.8935 0003602 264.0320 315.4746 15.69691141 27177,6737.918000000002,91.738,362.21,357.356,0.0
49131.0,STARLINK-3096,PAYLOAD,2022-03-05 22:00:01,15.69806121,0.0003648,70.0018,1.1909,263.1992,288.6818,-0.00069427,-0.00082481,0.0,0 STARLINK-3096,1 49131U 21082B   22064.91668981 -.00082481  00000-0 -69427-3 0  9999,2 49131  70.0018   1.1909 0003648 263.1992 288.6818 15.69806121  3709,6737.589,91.731,361.912,356.996,0.0
49131.0,STARLINK-3096,PAYLOAD,2022-03-06 06:00:00,15.6974966,0.0003636,70.0018,0.2541,268.8505,6.1477,4.2791e-06,2.99e-06,0.0,0 STARLINK-3096,1 49131U 21082B   22065.25001157  .00000299  00000-0  42791-5 0  9995,2 49131  70.0018   0.2541 0003636 268.8505   6.1477 15.69749660 27265,6737.75,91.734,362.065,357.165,0.0
49131.0,STARLINK-3096,PAYLOAD,2022-03-06 14:00:01,15.69694965,0.000346,70.0015,359.3171,262.2846,95.8726,0.00072562,0.00087119,0.0,0 STARLINK-3096,1 49131U 21082B   22065.58334491  .00087119  00000-0  72562-3 0  9994,2 49131  70.0015 359.3171 0003460 262.2846  95.8726 15.69694965  3689,6737.906999999997,91.738,362.103,357.44,0.0
49131.0,STARLINK-3096,PAYLOAD,2022-03-06 22:00:00,15.69796665,0.0003535,70.0016,358.3805,262.7471,178.467,-0.00087522,-0.0010362,0.0,0 STARLINK-3096,1 49131U 21082B   22065.91667824 -.00103620  00000-0 -87522-3 0  9990,2 49131  70.0016 358.3805 0003535 262.7471 178.4670 15.69796665  3692,6737.616,91.732,361.86300000000006,357.099,0.0
49131.0,STARLINK-3096,PAYLOAD,2022-03-07 06:00:00,15.69691578,0.0003533,70.0011,357.4437,267.9578,256.4039,-2.4596e-05,-3.14e-05,0.0,0 STARLINK-3096,1 49131U 21082B   22066.25001157 -.00003140  00000-0 -24596-4 0  9998,2 49131  70.0011 357.4437 0003533 267.9578 256.4039 15.69691578 27421,6737.916,91.738,362.162,357.401,0.0
